[
    {
        "Altitude(m)": 622200.0916723539,
        "Argument of Periapsis(deg)": 0.0,
        "Eccentricity": 0.0,
        "Inclination(deg)": 60.0,
        "Latitude(deg)": -52.162495368756296,
        "Longitude(deg)": 152.3606469671819,
        "Mean Anomaly(deg)": -65.45449999999998,
        "RAAN(deg)": 300.0,
        "Satellite Name": "Test1 1338",
        "Satellite Number": 1338,
        "Semi-Major Axis(m)": 6980739.136638005,
        "Time(s)": 0
    },
    {
        "Altitude(m)": 622058.2597759482,
        "Argument of Periapsis(deg)": 0.00010418945913296404,
        "Eccentricity": 0.0,
        "Inclination(deg)": 60.0,
        "Latitude(deg)": -51.79924612688143,
        "Longitude(deg)": 153.1287055038753,
        "Mean Anomaly(deg)": -64.83439385453813,
        "RAAN(deg)": 299.99957995086027,
        "Satellite Name": "Test1 1338",
        "Satellite Number": 1338,
        "Semi-Major Axis(m)": 6980739.136638005,
        "Time(s)": 10
    }
]